[{"OBJECT_NAME":"TROLL","OBJECT_ID":"2025-009BB","EPOCH":"2026-03-09T05:24:19.835712","MEAN_MOTION":15.28164315,"ECCENTRICITY":0.00018165,"INCLINATION":97.3932,"RA_OF_ASC_NODE":150.7169,"ARG_OF_PERICENTER":59.185,"MEAN_ANOMALY":300.9568,"EPHEMERIS_TYPE":0,"CLASSIFICATION_TYPE":"U","NORAD_CAT_ID":62658,"ELEMENT_SET_NO":999,"REV_AT_EPOCH":11817,"BSTAR":0.00048220305,"MEAN_MOTION_DOT":0.00013174,"MEAN_MOTION_DDOT":0},{"OBJECT_NAME":"STARLINK-33826","OBJECT_ID":"2025-083H","EPOCH":"2026-03-09T04:47:52.440864","MEAN_MOTION":15.27587536,"ECCENTRICITY":0.00014238,"INCLINATION":43.0033,"RA_OF_ASC_NODE":7.8334,"ARG_OF_PERICENTER":247.1375,"MEAN_ANOMALY":112.9326,"EPHEMERIS_TYPE":0,"CLASSIFICATION_TYPE":"U","NORAD_CAT_ID":63641,"ELEMENT_SET_NO":999,"REV_AT_EPOCH":4999,"BSTAR":0.0015460003,"MEAN_MOTION_DOT":0.00042536,"MEAN_MOTION_DDOT":0}]
